DELTA 1 R/B             
1 20323U 89089B   25307.87228811  .00000425  00000+0  11399-3 0  9994
2 20323  97.0794 170.2631 0069701 158.9940 201.4147 14.50522266877494
ARIANE 40 R/B           
1 20443U 90005H   25307.40469402  .00000372  00000+0  13226-3 0  9991
2 20443  98.3298   6.6842 0009407 219.2911 140.7595 14.39751116874632
DELTA 2 R/B(1)          
1 20453U 90008B   25307.93871004  .00037398  00000+0  66467-3 0  9991
2 20453  35.6079 270.4072 0118525 185.8696 174.0649 15.41629565906632
COSMOS 2058             
1 20465U 90010A   25307.86529210  .00003761  00000+0  22934-3 0  9996
2 20465  82.4683 171.2698 0011527  48.5766 311.6452 15.10028430923242
SL-14 R/B               
1 20466U 90010B   25307.48823708  .00000549  00000+0  63832-4 0  9998
2 20466  82.5052  25.9038 0019763   0.3082 359.8141 14.83415992909777
SL-14 R/B               
1 20511U 90018B   25307.45219152  .00000493  00000+0  59015-4 0  9992
2 20511  82.5217 341.0893 0017354 143.3721 216.8684 14.81990267903885
HST                     
1 20580U 90037B   25307.92209841  .00007519  00000+0  26514-3 0  9998
2 20580  28.4665 176.5566 0001849 151.7704 208.2992 15.27299371754050
SL-16 R/B               
1 20625U 90046B   25307.15795290 -.00000078  00000+0 -15681-4 0  9990
2 20625  70.9994 203.6451 0012576 144.6206 215.5753 14.14992416830493
COSMOS 2084             
1 20663U 90055A   25307.69470573  .00003909  00000+0  28656-3 0  9994
2 20663  62.7919  44.9977 0038237 170.0352 190.1515 15.04657736917355
SL-6 R/B(2)             
1 20666U 90055D   25307.77819815  .00002504  00000+0  20066-3 0  9999
2 20666  62.7837 321.7730 0010652 273.8068  86.1813 15.02781401919269
SL-8 R/B                
1 20775U 90078B   25307.91586925  .00016135  00000+0  49806-3 0  9992
2 20775  82.9088   3.9928 0382819  75.6437 288.6950 14.83901087790614
SL-8 R/B                
1 21088U 91006B   25307.62195462  .00000127  00000+0  11232-3 0  9998
2 21088  82.9400 263.8118 0023343  31.5039 141.1784 13.77481186746716
