CCSDS_OMM_VERS = 2.0
CREATION_DATE  = 
ORIGINATOR     = 

OBJECT_NAME    = DELTA 1 R/B
OBJECT_ID      = 1989-089B
CENTER_NAME    = EARTH
REF_FRAME      = TEME
TIME_SYSTEM    = UTC
MEAN_ELEMENT_THEORY = SGP/SGP4

EPOCH          = 2025-11-03T20:56:05.692704
MEAN_MOTION    = 14.50522266
ECCENTRICITY   = .00697015
INCLINATION    = 97.0794
RA_OF_ASC_NODE = 170.2631
ARG_OF_PERICENTER = 158.9940
MEAN_ANOMALY   = 201.4147

EPHEMERIS_TYPE = 0
CLASSIFICATION_TYPE = U
NORAD_CAT_ID   = 20323
ELEMENT_SET_NO = 999
REV_AT_EPOCH   = 87749
BSTAR          = .1139867E-3
MEAN_MOTION_DOT = .425E-5
MEAN_MOTION_DDOT = 0

CCSDS_OMM_VERS = 2.0
CREATION_DATE  = 
ORIGINATOR     = 

OBJECT_NAME    = ARIANE 40 R/B
OBJECT_ID      = 1990-005H
CENTER_NAME    = EARTH
REF_FRAME      = TEME
TIME_SYSTEM    = UTC
MEAN_ELEMENT_THEORY = SGP/SGP4

EPOCH          = 2025-11-03T09:42:45.563328
MEAN_MOTION    = 14.39751116
ECCENTRICITY   = .00094076
INCLINATION    = 98.3298
RA_OF_ASC_NODE = 6.6842
ARG_OF_PERICENTER = 219.2911
MEAN_ANOMALY   = 140.7595

EPHEMERIS_TYPE = 0
CLASSIFICATION_TYPE = U
NORAD_CAT_ID   = 20443
ELEMENT_SET_NO = 999
REV_AT_EPOCH   = 87463
BSTAR          = .1322605E-3
MEAN_MOTION_DOT = .372E-5
MEAN_MOTION_DDOT = 0

CCSDS_OMM_VERS = 2.0
CREATION_DATE  = 
ORIGINATOR     = 

OBJECT_NAME    = DELTA 2 R/B(1)
OBJECT_ID      = 1990-008B
CENTER_NAME    = EARTH
REF_FRAME      = TEME
TIME_SYSTEM    = UTC
MEAN_ELEMENT_THEORY = SGP/SGP4

EPOCH          = 2025-11-03T22:31:44.547456
MEAN_MOTION    = 15.41629565
ECCENTRICITY   = .01185251
INCLINATION    = 35.6079
RA_OF_ASC_NODE = 270.4072
ARG_OF_PERICENTER = 185.8696
MEAN_ANOMALY   = 174.0649

EPHEMERIS_TYPE = 0
CLASSIFICATION_TYPE = U
NORAD_CAT_ID   = 20453
ELEMENT_SET_NO = 999
REV_AT_EPOCH   = 90663
BSTAR          = .66466617E-3
MEAN_MOTION_DOT = .37398E-3
MEAN_MOTION_DDOT = 0

CCSDS_OMM_VERS = 2.0
CREATION_DATE  = 
ORIGINATOR     = 

OBJECT_NAME    = COSMOS 2058
OBJECT_ID      = 1990-010A
CENTER_NAME    = EARTH
REF_FRAME      = TEME
TIME_SYSTEM    = UTC
MEAN_ELEMENT_THEORY = SGP/SGP4

EPOCH          = 2025-11-03T20:46:01.237440
MEAN_MOTION    = 15.10028430
ECCENTRICITY   = .00115278
INCLINATION    = 82.4683
RA_OF_ASC_NODE = 171.2698
ARG_OF_PERICENTER = 48.5766
MEAN_ANOMALY   = 311.6452

EPHEMERIS_TYPE = 0
CLASSIFICATION_TYPE = U
NORAD_CAT_ID   = 20465
ELEMENT_SET_NO = 999
REV_AT_EPOCH   = 92324
BSTAR          = .22934203E-3
MEAN_MOTION_DOT = .3761E-4
MEAN_MOTION_DDOT = 0

CCSDS_OMM_VERS = 2.0
CREATION_DATE  = 
ORIGINATOR     = 

OBJECT_NAME    = SL-14 R/B
OBJECT_ID      = 1990-010B
CENTER_NAME    = EARTH
REF_FRAME      = TEME
TIME_SYSTEM    = UTC
MEAN_ELEMENT_THEORY = SGP/SGP4

EPOCH          = 2025-11-03T11:43:03.683712
MEAN_MOTION    = 14.83415992
ECCENTRICITY   = .00197632
INCLINATION    = 82.5052
RA_OF_ASC_NODE = 25.9038
ARG_OF_PERICENTER = 0.3082
MEAN_ANOMALY   = 359.8141

EPHEMERIS_TYPE = 0
CLASSIFICATION_TYPE = U
NORAD_CAT_ID   = 20466
ELEMENT_SET_NO = 999
REV_AT_EPOCH   = 90977
BSTAR          = .63831952E-4
MEAN_MOTION_DOT = .549E-5
MEAN_MOTION_DDOT = 0

CCSDS_OMM_VERS = 2.0
CREATION_DATE  = 
ORIGINATOR     = 

OBJECT_NAME    = SL-14 R/B
OBJECT_ID      = 1990-018B
CENTER_NAME    = EARTH
REF_FRAME      = TEME
TIME_SYSTEM    = UTC
MEAN_ELEMENT_THEORY = SGP/SGP4

EPOCH          = 2025-11-03T10:51:09.347328
MEAN_MOTION    = 14.81990267
ECCENTRICITY   = .00173541
INCLINATION    = 82.5217
RA_OF_ASC_NODE = 341.0893
ARG_OF_PERICENTER = 143.3721
MEAN_ANOMALY   = 216.8684

EPHEMERIS_TYPE = 0
CLASSIFICATION_TYPE = U
NORAD_CAT_ID   = 20511
ELEMENT_SET_NO = 999
REV_AT_EPOCH   = 90388
BSTAR          = .59015282E-4
MEAN_MOTION_DOT = .493E-5
MEAN_MOTION_DDOT = 0

CCSDS_OMM_VERS = 2.0
CREATION_DATE  = 
ORIGINATOR     = 

OBJECT_NAME    = HST
OBJECT_ID      = 1990-037B
CENTER_NAME    = EARTH
REF_FRAME      = TEME
TIME_SYSTEM    = UTC
MEAN_ELEMENT_THEORY = SGP/SGP4

EPOCH          = 2025-11-03T22:07:49.302624
MEAN_MOTION    = 15.27299371
ECCENTRICITY   = .00018494
INCLINATION    = 28.4665
RA_OF_ASC_NODE = 176.5566
ARG_OF_PERICENTER = 151.7704
MEAN_ANOMALY   = 208.2992

EPHEMERIS_TYPE = 0
CLASSIFICATION_TYPE = U
NORAD_CAT_ID   = 20580
ELEMENT_SET_NO = 999
REV_AT_EPOCH   = 75405
BSTAR          = .26513609E-3
MEAN_MOTION_DOT = .7519E-4
MEAN_MOTION_DDOT = 0

CCSDS_OMM_VERS = 2.0
CREATION_DATE  = 
ORIGINATOR     = 

OBJECT_NAME    = SL-16 R/B
OBJECT_ID      = 1990-046B
CENTER_NAME    = EARTH
REF_FRAME      = TEME
TIME_SYSTEM    = UTC
MEAN_ELEMENT_THEORY = SGP/SGP4

EPOCH          = 2025-11-03T03:47:27.130560
MEAN_MOTION    = 14.14992416
ECCENTRICITY   = .00125764
INCLINATION    = 70.9994
RA_OF_ASC_NODE = 203.6451
ARG_OF_PERICENTER = 144.6206
MEAN_ANOMALY   = 215.5753

EPHEMERIS_TYPE = 0
CLASSIFICATION_TYPE = U
NORAD_CAT_ID   = 20625
ELEMENT_SET_NO = 999
REV_AT_EPOCH   = 83049
BSTAR          = -.15680568E-4
MEAN_MOTION_DOT = -.78E-6
MEAN_MOTION_DDOT = 0

CCSDS_OMM_VERS = 2.0
CREATION_DATE  = 
ORIGINATOR     = 

OBJECT_NAME    = COSMOS 2084
OBJECT_ID      = 1990-055A
CENTER_NAME    = EARTH
REF_FRAME      = TEME
TIME_SYSTEM    = UTC
MEAN_ELEMENT_THEORY = SGP/SGP4

EPOCH          = 2025-11-03T16:40:22.575072
MEAN_MOTION    = 15.04657736
ECCENTRICITY   = .00382372
INCLINATION    = 62.7919
RA_OF_ASC_NODE = 44.9977
ARG_OF_PERICENTER = 170.0352
MEAN_ANOMALY   = 190.1515

EPHEMERIS_TYPE = 0
CLASSIFICATION_TYPE = U
NORAD_CAT_ID   = 20663
ELEMENT_SET_NO = 999
REV_AT_EPOCH   = 91735
BSTAR          = .28655551E-3
MEAN_MOTION_DOT = .3909E-4
MEAN_MOTION_DDOT = 0

CCSDS_OMM_VERS = 2.0
CREATION_DATE  = 
ORIGINATOR     = 

OBJECT_NAME    = SL-6 R/B(2)
OBJECT_ID      = 1990-055D
CENTER_NAME    = EARTH
REF_FRAME      = TEME
TIME_SYSTEM    = UTC
MEAN_ELEMENT_THEORY = SGP/SGP4

EPOCH          = 2025-11-03T18:40:36.320160
MEAN_MOTION    = 15.02781401
ECCENTRICITY   = .00106525
INCLINATION    = 62.7837
RA_OF_ASC_NODE = 321.7730
ARG_OF_PERICENTER = 273.8068
MEAN_ANOMALY   = 86.1813

EPHEMERIS_TYPE = 0
CLASSIFICATION_TYPE = U
NORAD_CAT_ID   = 20666
ELEMENT_SET_NO = 999
REV_AT_EPOCH   = 91926
BSTAR          = .20066324E-3
MEAN_MOTION_DOT = .2504E-4
MEAN_MOTION_DDOT = 0

CCSDS_OMM_VERS = 2.0
CREATION_DATE  = 
ORIGINATOR     = 

OBJECT_NAME    = SL-8 R/B
OBJECT_ID      = 1990-078B
CENTER_NAME    = EARTH
REF_FRAME      = TEME
TIME_SYSTEM    = UTC
MEAN_ELEMENT_THEORY = SGP/SGP4

EPOCH          = 2025-11-03T21:58:51.103200
MEAN_MOTION    = 14.83901087
ECCENTRICITY   = .03828193
INCLINATION    = 82.9088
RA_OF_ASC_NODE = 3.9928
ARG_OF_PERICENTER = 75.6437
MEAN_ANOMALY   = 288.6950

EPHEMERIS_TYPE = 0
CLASSIFICATION_TYPE = U
NORAD_CAT_ID   = 20775
ELEMENT_SET_NO = 999
REV_AT_EPOCH   = 79061
BSTAR          = .49805602E-3
MEAN_MOTION_DOT = .16135E-3
MEAN_MOTION_DDOT = 0

CCSDS_OMM_VERS = 2.0
CREATION_DATE  = 
ORIGINATOR     = 

OBJECT_NAME    = SL-8 R/B
OBJECT_ID      = 1991-006B
CENTER_NAME    = EARTH
REF_FRAME      = TEME
TIME_SYSTEM    = UTC
MEAN_ELEMENT_THEORY = SGP/SGP4

EPOCH          = 2025-11-03T14:55:36.879168
MEAN_MOTION    = 13.77481186
ECCENTRICITY   = .00233438
INCLINATION    = 82.9400
RA_OF_ASC_NODE = 263.8118
ARG_OF_PERICENTER = 31.5039
MEAN_ANOMALY   = 141.1784

EPHEMERIS_TYPE = 0
CLASSIFICATION_TYPE = U
NORAD_CAT_ID   = 21088
ELEMENT_SET_NO = 999
REV_AT_EPOCH   = 74671
BSTAR          = .11232352E-3
MEAN_MOTION_DOT = .127E-5
MEAN_MOTION_DDOT = 0

